OBJECT_NAME,OBJECT_ID,EPOCH,MEAN_MOTION,ECCENTRICITY,INCLINATION,RA_OF_ASC_NODE,ARG_OF_PERICENTER,MEAN_ANOMALY,EPHEMERIS_TYPE,CLASSIFICATION_TYPE,NORAD_CAT_ID,ELEMENT_SET_NO,REV_AT_EPOCH,BSTAR,MEAN_MOTION_DOT,MEAN_MOTION_DDOT
STARLINK-6379,2023-099R,2026-07-07T06:52:44.918400,15.27557111,.0001471,43.0046,297.2871,272.2042,87.8641,0,U,57343,999,16436,.45794E-4,.997E-5,0
STARLINK-6380,2023-099S,2026-07-07T08:58:08.213088,15.27566436,.0001592,43.0030,296.2166,268.1879,91.8790,0,U,57344,999,16438,.22225E-4,.349E-5,0
STARLINK-6373,2023-099T,2026-07-07T09:17:47.491008,15.27561332,.000162,43.0015,299.7334,271.9353,88.1313,0,U,57345,999,16434,.52013E-4,.1169E-4,0
STARLINK-6359,2023-099U,2026-07-07T08:29:26.777760,15.27568033,.000146,43.0020,293.5205,262.5309,97.5377,0,U,57346,999,16441,.31125E-4,.594E-5,0
STARLINK-6378,2023-099V,2026-07-07T09:27:01.951776,15.27577122,.0001156,43.0013,299.7851,265.7307,94.3413,0,U,57347,999,16434,-.3863E-4,-.1325E-4,0
STARLINK-6372,2023-099W,2026-07-07T06:38:39.167808,15.27557288,.0001257,43.0001,293.8009,198.9734,161.1070,0,U,57348,999,16440,.50583E-4,.1129E-4,0
STARLINK-6376,2023-099X,2026-07-07T07:39:30.688416,15.27555904,.0003101,43.0095,293.2738,301.4249,58.6299,0,U,57349,999,16513,.13365E-4,.105E-5,0
STARLINK-6362,2023-099Y,2026-07-07T07:44:33.929088,15.27559542,.0001317,43.0041,286.2341,276.9140,83.1561,0,U,57350,999,16448,.59713E-4,.138E-4,0
STARLINK-6331,2023-099Z,2026-07-07T07:17:18.447936,15.27554918,.0001379,43.0033,293.1489,270.4818,89.5876,0,U,57351,999,16441,.86093E-4,.2106E-4,0
STARLINK-6297,2023-099AA,2026-07-07T07:35:17.640096,15.27568707,.0005413,42.9927,286.1690,144.1703,215.9512,0,U,57352,999,16449,.62727E-4,.1463E-4,0
STARLINK-6324,2023-099AB,2026-07-07T07:48:46.084896,15.27556699,.000123,43.0027,293.3108,268.7882,91.2829,0,U,57353,999,16441,-.71741E-4,-.2234E-4,0
STARLINK-6293,2023-099AC,2026-07-07T10:39:54.819936,15.27567901,.0000849,43.0023,285.4190,251.7262,108.3497,0,U,57354,999,16451,.47829E-5,-.13E-5,0
STARLINK-6276,2023-099AD,2026-07-07T08:04:55.447104,15.27558152,.0001606,43.0050,286.3341,270.9293,89.1374,0,U,57355,999,16449,.88983E-4,.2186E-4,0
STARLINK-6355,2023-099AE,2026-07-07T07:51:57.680352,15.27568770,.0001704,43.0050,286.2657,274.6870,85.3787,0,U,57356,999,16449,-.68452E-4,-.2145E-4,0
STARLINK-5600,2023-099AF,2026-07-05T23:46:15.953088,15.27579273,.00013898,43.0033,293.4319,273.9890,86.0803,0,U,57357,999,16429,-.2344261E-4,-.907E-5,0
STARLINK-6299,2023-099AG,2026-07-07T08:13:57.277920,15.27569972,.0001488,43.0028,285.5317,263.2981,96.7701,0,U,57358,999,16524,-.28893E-5,-.342E-5,0
STARLINK-6347,2023-099AH,2026-07-07T07:39:00.622944,15.27576573,.0001117,43.0035,286.2016,268.2142,91.8581,0,U,57359,999,16449,.3814E-4,.787E-5,0
STARLINK-6348,2023-099AJ,2026-07-07T06:50:55.213728,15.27562985,.0001654,43.0032,285.9518,276.2665,83.7998,0,U,57360,999,16449,-.26236E-4,-.984E-5,0
STARLINK-6340,2023-099AK,2026-07-07T08:03:03.381120,15.27565597,.0001649,43.0030,286.3163,270.0116,90.0547,0,U,57361,999,16449,.15198E-4,.156E-5,0
STARLINK-6343,2023-099AL,2026-07-07T08:30:36.595008,15.27568693,.0001022,43.0036,285.6083,247.2188,112.8555,0,U,57362,999,16449,-.91544E-4,-.2779E-4,0
STARLINK-6356,2023-099AM,2026-07-07T08:19:29.796960,15.27569276,.000128,43.0003,285.5469,256.0052,104.0657,0,U,57363,999,16450,.18042E-4,.234E-5,0
STARLINK-6338,2023-099AN,2026-07-07T07:02:00.256992,15.27563930,.0000927,43.0007,286.0051,267.4623,92.6123,0,U,57364,999,16448,-.39553E-4,-.135E-4,0
STARLINK-5007,2023-099AP,2026-07-07T07:27:46.634688,15.27665449,.0008796,42.9808,286.1017,148.2951,211.8432,0,U,57365,999,16449,.52121E-3,.14158E-3,0
STARLINK-6174,2023-099AQ,2026-07-07T07:22:21.166752,15.27569979,.0000642,43.0016,286.1079,250.7841,109.2942,0,U,57366,999,16449,-.85334E-4,-.2608E-4,0
STARLINK-6215,2023-099AR,2026-07-07T06:35:39.723648,15.27578360,.0001316,43.0041,267.7307,263.1774,96.8928,0,U,57367,999,16545,.51152E-4,.1146E-4,0
STARLINK-6218,2023-099AS,2026-07-07T07:33:26.121024,15.27584024,.0003735,42.9968,286.1563,146.0628,214.0463,0,U,57368,999,16449,.29108E-4,.538E-5,0
STARLINK-6168,2023-099AT,2026-07-07T08:07:10.911072,15.29751918,.0001746,42.9987,285.4836,350.6288,9.4531,0,U,57369,999,16450,.5486E-3,.15904E-3,0
STARLINK-5353,2023-099AU,2026-07-07T06:08:29.988096,15.27600141,.0001533,43.0049,286.5787,185.9103,174.1731,0,U,57370,999,16448,.14349E-4,.133E-5,0
STARLINK-6032,2023-099AV,2026-07-07T07:16:48.895680,15.27566076,.0000465,43.0003,286.0817,300.1295,59.9510,0,U,57371,999,16449,-.48206E-4,-.1587E-4,0
STARLINK-5975,2023-099AW,2026-07-07T07:59:21.086016,15.27564594,.0001315,43.0033,286.2831,254.6299,105.4408,0,U,57372,999,16449,-.15114E-5,-.304E-5,0
