STARLINK-6379           
1 57343U 23099R   26188.28663100  .00000997  00000+0  45794-4 0  9993
2 57343  43.0046 297.2871 0001471 272.2042  87.8641 15.27557111164368
STARLINK-6380           
1 57344U 23099S   26188.37370617  .00000349  00000+0  22225-4 0  9997
2 57344  43.0030 296.2166 0001592 268.1879  91.8790 15.27566436164386
STARLINK-6373           
1 57345U 23099T   26188.38735522  .00001169  00000+0  52013-4 0  9998
2 57345  43.0015 299.7334 0001620 271.9353  88.1313 15.27561332164342
STARLINK-6359           
1 57346U 23099U   26188.35378215  .00000594  00000+0  31125-4 0  9990
2 57346  43.0020 293.5205 0001460 262.5309  97.5377 15.27568033164414
STARLINK-6378           
1 57347U 23099V   26188.39377259 -.00001325  00000+0 -38630-4 0  9995
2 57347  43.0013 299.7851 0001156 265.7307  94.3413 15.27577122164344
STARLINK-6372           
1 57348U 23099W   26188.27684222  .00001129  00000+0  50583-4 0  9995
2 57348  43.0001 293.8009 0001257 198.9734 161.1070 15.27557288164405
STARLINK-6376           
1 57349U 23099X   26188.31910519  .00000105  00000+0  13365-4 0  9992
2 57349  43.0095 293.2738 0003101 301.4249  58.6299 15.27555904165131
STARLINK-6362           
1 57350U 23099Y   26188.32261492  .00001380  00000+0  59713-4 0  9997
2 57350  43.0041 286.2341 0001317 276.9140  83.1561 15.27559542164483
STARLINK-6331           
1 57351U 23099Z   26188.30368574  .00002106  00000+0  86093-4 0  9993
2 57351  43.0033 293.1489 0001379 270.4818  89.5876 15.27554918164418
STARLINK-6297           
1 57352U 23099AA  26188.31617639  .00001463  00000+0  62727-4 0  9997
2 57352  42.9927 286.1690 0005413 144.1703 215.9512 15.27568707164499
STARLINK-6324           
1 57353U 23099AB  26188.32553339 -.00002234  00000+0 -71741-4 0  9990
2 57353  43.0027 293.3108 0001230 268.7882  91.2829 15.27556699164416
STARLINK-6293           
1 57354U 23099AC  26188.44438449 -.00000130  00000+0  47829-5 0  9991
2 57354  43.0023 285.4190 0000849 251.7262 108.3497 15.27567901164515
STARLINK-6276           
1 57355U 23099AD  26188.33675286  .00002186  00000+0  88983-4 0  9999
2 57355  43.0050 286.3341 0001606 270.9293  89.1374 15.27558152164498
STARLINK-6355           
1 57356U 23099AE  26188.32775093 -.00002145  00000+0 -68452-4 0  9992
2 57356  43.0050 286.2657 0001704 274.6870  85.3787 15.27568770164492
STARLINK-5600           
1 57357U 23099AF  26186.99046242 -.00000907  00000+0 -23443-4 0  9996
2 57357  43.0033 293.4319 0001389 273.9890  86.0803 15.27579273164297
STARLINK-6299           
1 57358U 23099AG  26188.34302405 -.00000342  00000+0 -28893-5 0  9992
2 57358  43.0028 285.5317 0001488 263.2981  96.7701 15.27569972165241
STARLINK-6347           
1 57359U 23099AH  26188.31875721  .00000787  00000+0  38140-4 0  9992
2 57359  43.0035 286.2016 0001117 268.2142  91.8581 15.27576573164490
STARLINK-6348           
1 57360U 23099AJ  26188.28536127 -.00000984  00000+0 -26236-4 0  9998
2 57360  43.0032 285.9518 0001654 276.2665  83.7998 15.27562985164491
STARLINK-6340           
1 57361U 23099AK  26188.33545580  .00000156  00000+0  15198-4 0  9992
2 57361  43.0030 286.3163 0001649 270.0116  90.0547 15.27565597164491
STARLINK-6343           
1 57362U 23099AL  26188.35459022 -.00002779  00000+0 -91544-4 0  9994
2 57362  43.0036 285.6083 0001022 247.2188 112.8555 15.27568693164493
STARLINK-6356           
1 57363U 23099AM  26188.34687265  .00000234  00000+0  18042-4 0  9990
2 57363  43.0003 285.5469 0001280 256.0052 104.0657 15.27569276164505
STARLINK-6338           
1 57364U 23099AN  26188.29305853 -.00001350  00000+0 -39553-4 0  9997
2 57364  43.0007 286.0051 0000927 267.4623  92.6123 15.27563930164488
STARLINK-5007           
1 57365U 23099AP  26188.31095642  .00014158  00000+0  52121-3 0  9996
2 57365  42.9808 286.1017 0008796 148.2951 211.8432 15.27665449164498
STARLINK-6174           
1 57366U 23099AQ  26188.30718943 -.00002608  00000+0 -85334-4 0  9994
2 57366  43.0016 286.1079 0000642 250.7841 109.2942 15.27569979164496
STARLINK-6215           
1 57367U 23099AR  26188.27476532  .00001146  00000+0  51152-4 0  9991
2 57367  43.0041 267.7307 0001316 263.1774  96.8928 15.27578360165452
STARLINK-6218           
1 57368U 23099AS  26188.31488566  .00000538  00000+0  29108-4 0  9997
2 57368  42.9968 286.1563 0003735 146.0628 214.0463 15.27584024164497
STARLINK-6168           
1 57369U 23099AT  26188.33832073  .00015904  00000+0  54860-3 0  9991
2 57369  42.9987 285.4836 0001746 350.6288   9.4531 15.29751918164503
STARLINK-5353           
1 57370U 23099AU  26188.25590264  .00000133  00000+0  14349-4 0  9994
2 57370  43.0049 286.5787 0001533 185.9103 174.1731 15.27600141164480
STARLINK-6032           
1 57371U 23099AV  26188.30334370 -.00001587  00000+0 -48206-4 0  9990
2 57371  43.0003 286.0817 0000465 300.1295  59.9510 15.27566076164490
STARLINK-5975           
1 57372U 23099AW  26188.33288294 -.00000304  00000+0 -15114-5 0  9996
2 57372  43.0033 286.2831 0001315 254.6299 105.4408 15.27564594164490
